TEVEL2-4                
1 63213U 25052D   26068.69417973  .00020990  00000+0  70363-3 0  9998
2 63213  97.4009 325.1237 0004733  95.3468 264.8313 15.30925813 54879
STARLINK-34589          
1 64747U 25144Z   26068.53308031  .00022324  00000+0  76354-3 0  9999
2 64747  53.1599 169.2247 0001155 144.3867 215.7211 15.30202003 39869
